[
    {
        "Altitude(m)": 607886.680225871,
        "Argument of Periapsis(deg)": 0.0,
        "Eccentricity": 0.0,
        "Inclination(deg)": 60.0,
        "Latitude(deg)": 40.998413256036955,
        "Longitude(deg)": -30.02712717798768,
        "Mean Anomaly(deg)": 49.090900000000005,
        "RAAN(deg)": 40.0,
        "Satellite Name": "Test1 179",
        "Satellite Number": 179,
        "Semi-Major Axis(m)": 6980739.136638005,
        "Time(s)": 0
    },
    {
        "Altitude(m)": 607987.5946461984,
        "Argument of Periapsis(deg)": 0.00010418945913296404,
        "Eccentricity": 0.0,
        "Inclination(deg)": 60.0,
        "Latitude(deg)": 41.46350442435645,
        "Longitude(deg)": -29.522901299005788,
        "Mean Anomaly(deg)": 49.711006145461816,
        "RAAN(deg)": 39.99957995086026,
        "Satellite Name": "Test1 179",
        "Satellite Number": 179,
        "Semi-Major Axis(m)": 6980739.136638005,
        "Time(s)": 10
    },
    {
        "Altitude(m)": 608088.5586969394,
        "Argument of Periapsis(deg)": 0.0002083789182659281,
        "Eccentricity": 0.0,
        "Inclination(deg)": 60.0,
        "Latitude(deg)": 41.92593143806003,
        "Longitude(deg)": -29.010852428793214,
        "Mean Anomaly(deg)": 50.33111229092366,
        "RAAN(deg)": 39.99915990172052,
        "Satellite Name": "Test1 179",
        "Satellite Number": 179,
        "Semi-Major Axis(m)": 6980739.136638005,
        "Time(s)": 20
    },
    {
        "Altitude(m)": 608189.5091566456,
        "Argument of Periapsis(deg)": 0.00031256837739889213,
        "Eccentricity": 0.0,
        "Inclination(deg)": 60.0,
        "Latitude(deg)": 42.38561354800736,
        "Longitude(deg)": -28.490784525910126,
        "Mean Anomaly(deg)": 50.95121843638549,
        "RAAN(deg)": 39.998739852580776,
        "Satellite Name": "Test1 179",
        "Satellite Number": 179,
        "Semi-Major Axis(m)": 6980739.136638005,
        "Time(s)": 30
    },
    {
        "Altitude(m)": 608290.3830305913,
        "Argument of Periapsis(deg)": 0.0004167578365318562,
        "Eccentricity": 0.0,
        "Inclination(deg)": 60.0,
        "Latitude(deg)": 42.84246745802329,
        "Longitude(deg)": -27.962497682125917,
        "Mean Anomaly(deg)": 51.571324581847314,
        "RAAN(deg)": 39.998319803441035,
        "Satellite Name": "Test1 179",
        "Satellite Number": 179,
        "Semi-Major Axis(m)": 6980739.136638005,
        "Time(s)": 40
    },
    {
        "Altitude(m)": 608391.1175820216,
        "Argument of Periapsis(deg)": 0.0005209472956648203,
        "Eccentricity": 0.0,
        "Inclination(deg)": 60.0,
        "Latitude(deg)": 43.29640724550861,
        "Longitude(deg)": -27.42578921743204,
        "Mean Anomaly(deg)": 52.19143072730915,
        "RAAN(deg)": 39.99789975430128,
        "Satellite Name": "Test1 179",
        "Satellite Number": 179,
        "Semi-Major Axis(m)": 6980739.136638005,
        "Time(s)": 50
    },
    {
        "Altitude(m)": 608491.6503632272,
        "Argument of Periapsis(deg)": 0.0006251367547977843,
        "Eccentricity": 0.0,
        "Inclination(deg)": 60.0,
        "Latitude(deg)": 43.74734428134467,
        "Longitude(deg)": -26.880453281949595,
        "Mean Anomaly(deg)": 52.81153687277097,
        "RAAN(deg)": 39.99747970516154,
        "Satellite Name": "Test1 179",
        "Satellite Number": 179,
        "Semi-Major Axis(m)": 6980739.136638005,
        "Time(s)": 60
    },
    {
        "Altitude(m)": 608591.9192464451,
        "Argument of Periapsis(deg)": 0.0007293262139307483,
        "Eccentricity": 0.0,
        "Inclination(deg)": 60.0,
        "Latitude(deg)": 44.1951871493202,
        "Longitude(deg)": -26.32628047949165,
        "Mean Anomaly(deg)": 53.43164301823282,
        "RAAN(deg)": 39.997059656021804,
        "Satellite Name": "Test1 179",
        "Satellite Number": 179,
        "Semi-Major Axis(m)": 6980739.136638005,
        "Time(s)": 70
    },
    {
        "Altitude(m)": 608691.8624545393,
        "Argument of Periapsis(deg)": 0.0008335156730637124,
        "Eccentricity": 0.0,
        "Inclination(deg)": 60.0,
        "Latitude(deg)": 44.63984156534334,
        "Longitude(deg)": -25.763059027664283,
        "Mean Anomaly(deg)": 54.05174916369463,
        "RAAN(deg)": 39.996639606882056,
        "Satellite Name": "Test1 179",
        "Satellite Number": 179,
        "Semi-Major Axis(m)": 6980739.136638005,
        "Time(s)": 80
    },
    {
        "Altitude(m)": 608791.4185914573,
        "Argument of Periapsis(deg)": 0.0009377051321966765,
        "Eccentricity": 0.0,
        "Inclination(deg)": 60.0,
        "Latitude(deg)": 45.08121029674532,
        "Longitude(deg)": -25.19057443089749,
        "Mean Anomaly(deg)": 54.67185530915647,
        "RAAN(deg)": 39.996219557742315,
        "Satellite Name": "Test1 179",
        "Satellite Number": 179,
        "Semi-Major Axis(m)": 6980739.136638005,
        "Time(s)": 90
    },
    {
        "Altitude(m)": 608890.5266724938,
        "Argument of Periapsis(deg)": 0.0010418945913296407,
        "Eccentricity": 0.0,
        "Inclination(deg)": 60.0,
        "Latitude(deg)": 45.519193082015015,
        "Longitude(deg)": -24.608609181535904,
        "Mean Anomaly(deg)": 55.2919614546183,
        "RAAN(deg)": 39.99579950860257,
        "Satellite Name": "Test1 179",
        "Satellite Number": 179,
        "Semi-Major Axis(m)": 6980739.136638005,
        "Time(s)": 100
    },
    {
        "Altitude(m)": 608989.1261542499,
        "Argument of Periapsis(deg)": 0.0011460840504626045,
        "Eccentricity": 0.0,
        "Inclination(deg)": 60.0,
        "Latitude(deg)": 45.95368655134826,
        "Longitude(deg)": -24.016944004242184,
        "Mean Anomaly(deg)": 55.91206760008013,
        "RAAN(deg)": 39.99537945946283,
        "Satellite Name": "Test1 179",
        "Satellite Number": 179,
        "Semi-Major Axis(m)": 6980739.136638005,
        "Time(s)": 110
    },
    {
        "Altitude(m)": 609087.1569644064,
        "Argument of Periapsis(deg)": 0.0012502735095955685,
        "Eccentricity": 0.0,
        "Inclination(deg)": 60.0,
        "Latitude(deg)": 46.384584148448816,
        "Longitude(deg)": -23.415357620467567,
        "Mean Anomaly(deg)": 56.53217374554196,
        "RAAN(deg)": 39.99495941032309,
        "Satellite Name": "Test1 179",
        "Satellite Number": 179,
        "Semi-Major Axis(m)": 6980739.136638005,
        "Time(s)": 120
    },
    {
        "Altitude(m)": 609184.5595311387,
        "Argument of Periapsis(deg)": 0.0013544629687285324,
        "Eccentricity": 0.0,
        "Inclination(deg)": 60.0,
        "Latitude(deg)": 46.81177605406217,
        "Longitude(deg)": -22.803626548473172,
        "Mean Anomaly(deg)": 57.1522798910038,
        "RAAN(deg)": 39.99453936118334,
        "Satellite Name": "Test1 179",
        "Satellite Number": 179,
        "Semi-Major Axis(m)": 6980739.136638005,
        "Time(s)": 130
    },
    {
        "Altitude(m)": 609281.2748123428,
        "Argument of Periapsis(deg)": 0.0014586524278614966,
        "Eccentricity": 0.0,
        "Inclination(deg)": 60.0,
        "Latitude(deg)": 47.2351491117775,
        "Longitude(deg)": -22.181526454489184,
        "Mean Anomaly(deg)": 57.772386036465626,
        "RAAN(deg)": 39.9941193120436,
        "Satellite Name": "Test1 179",
        "Satellite Number": 179,
        "Semi-Major Axis(m)": 6980739.136638005,
        "Time(s)": 140
    },
    {
        "Altitude(m)": 609377.2443244692,
        "Argument of Periapsis(deg)": 0.0015628418869944607,
        "Eccentricity": 0.0,
        "Inclination(deg)": 60.0,
        "Latitude(deg)": 47.65458675669883,
        "Longitude(deg)": -21.54883203207688,
        "Mean Anomaly(deg)": 58.39249218192744,
        "RAAN(deg)": 39.99369926290386,
        "Satellite Name": "Test1 179",
        "Satellite Number": 179,
        "Semi-Major Axis(m)": 6980739.136638005,
        "Time(s)": 150
    },
    {
        "Altitude(m)": 609472.4101711243,
        "Argument of Periapsis(deg)": 0.0016670313461274247,
        "Eccentricity": 0.0,
        "Inclination(deg)": 60.0,
        "Latitude(deg)": 48.06996894764031,
        "Longitude(deg)": -20.90531692545161,
        "Mean Anomaly(deg)": 59.01259832738929,
        "RAAN(deg)": 39.99327921376412,
        "Satellite Name": "Test1 179",
        "Satellite Number": 179,
        "Semi-Major Axis(m)": 6980739.136638005,
        "Time(s)": 160
    },
    {
        "Altitude(m)": 609566.715071296,
        "Argument of Periapsis(deg)": 0.0017712208052603888,
        "Eccentricity": 0.0,
        "Inclination(deg)": 60.0,
        "Latitude(deg)": 48.48117210356669,
        "Longitude(deg)": -20.250755212583684,
        "Mean Anomaly(deg)": 59.63270447285112,
        "RAAN(deg)": 39.99285916462437,
        "Satellite Name": "Test1 179",
        "Satellite Number": 179,
        "Semi-Major Axis(m)": 6980739.136638005,
        "Time(s)": 170
    },
    {
        "Altitude(m)": 609660.1023872677,
        "Argument of Periapsis(deg)": 0.001875410264393353,
        "Eccentricity": 0.0,
        "Inclination(deg)": 60.0,
        "Latitude(deg)": 48.88806904507529,
        "Longitude(deg)": -19.584921425314494,
        "Mean Anomaly(deg)": 60.25281061831294,
        "RAAN(deg)": 39.99243911548463,
        "Satellite Name": "Test1 179",
        "Satellite Number": 179,
        "Semi-Major Axis(m)": 6980739.136638005,
        "Time(s)": 180
    },
    {
        "Altitude(m)": 609752.5161521789,
        "Argument of Periapsis(deg)": 0.0019795997235263173,
        "Eccentricity": 0.0,
        "Inclination(deg)": 60.0,
        "Latitude(deg)": 49.2905289417814,
        "Longitude(deg)": -18.907590622345506,
        "Mean Anomaly(deg)": 60.87291676377477,
        "RAAN(deg)": 39.99201906634489,
        "Satellite Name": "Test1 179",
        "Satellite Number": 179,
        "Semi-Major Axis(m)": 6980739.136638005,
        "Time(s)": 190
    }
]